[{"OBJECT_NAME":"REIMEI (INDEX)","OBJECT_ID":"2005-031B","EPOCH":"2026-03-09T21:15:47.083968","MEAN_MOTION":15.09838737,"ECCENTRICITY":0.00209792,"INCLINATION":97.9988,"RA_OF_ASC_NODE":188.389,"ARG_OF_PERICENTER":89.5619,"MEAN_ANOMALY":270.8013,"EPHEMERIS_TYPE":0,"CLASSIFICATION_TYPE":"U","NORAD_CAT_ID":28810,"ELEMENT_SET_NO":999,"REV_AT_EPOCH":11600,"BSTAR":0.00050498736,"MEAN_MOTION_DOT":8.144e-5,"MEAN_MOTION_DDOT":0},{"OBJECT_NAME":"STARLINK-34811","OBJECT_ID":"2025-191T","EPOCH":"2026-03-09T14:37:27.977376","MEAN_MOTION":15.05646212,"ECCENTRICITY":0.0002315,"INCLINATION":97.6016,"RA_OF_ASC_NODE":301.3914,"ARG_OF_PERICENTER":84.334,"MEAN_ANOMALY":275.815,"EPHEMERIS_TYPE":0,"CLASSIFICATION_TYPE":"U","NORAD_CAT_ID":65396,"ELEMENT_SET_NO":999,"REV_AT_EPOCH":3025,"BSTAR":0.00016369,"MEAN_MOTION_DOT":2.302e-5,"MEAN_MOTION_DDOT":0}]
